facId,name,Level,type,address,city,state,zip,phone,hours,travelDays,lat,long
A11,Anchorage TRACON,8,TRACON,5200 W International Airport Rd,Anchorage,AK,99502,907-271-2700,0000-2359,9,61.17735,-149.97821
A80,Atlanta TRACON,12,TRACON,784 S Hwy 74,Peachtree City,GA,30269,678-364-6000,0000-2359,2,33.351769,-84.550204
A90,Boston TRACON,11,TRACON,25 Robert Milligan Pkwy,Merrimack,NH,03054,603-594-5500,0000-2359,4,42.816611,-71.493611
ABE,Allentown Tower,7,COMBINED TRACON TOWER,135 Fashion Dr S,Allentown,PA,18109,610-264-4539,0000-2359,3,40.658198,-75.441448
ABI,Abilene Tower,6,COMBINED TRACON TOWER,2925 Lance Dr,Abilene,TX,79602,325-201-9442,0000-2359,1,32.414646,-99.67937
ABQ,Albuquerque Tower,8,COMBINED TRACON TOWER,2800 Kirtland Dr SE,Albuquerque,NM,87117,505-856-4900,0000-2359,2,35.04877,-106.606432
ACK,Nantucket Tower,5,TOWER WITH RADAR,14 Airport Rd Unit 14,Nantucket,MA,02554,508-563-1487,0600-2200 MAY 15-SEP 30; 0600-2100 OCT 1-MAY 14,4,41.257091,-70.06338
ACT,Waco Tower,6,COMBINED TRACON TOWER,7909 Karl May Dr,Waco,TX,76708,254-759-3015,0600-0000,1,31.60754,-97.219666
ACY,Atlantic City Tower,6,COMBINED TRACON TOWER,Atlantic City International Airport,Atlantic City,NJ,08405,603-641-3940,0000-2359,4,39.455563,-74.58804
ADS,Addison Tower,6,TOWER WITH RADAR,16000 Dooley Rd,Addison,TX,75001,972-628-2403,0600-2200,1,32.967854,-96.83841
ADW,Andrews Tower,5,TOWER WITH RADAR,FAA Andrews Air Base ATCT,Andrews AFB,MD,20762,240-312-4096,0000-2359,3,38.80519,-76.87741
AFW,Alliance Tower,6,TOWER WITH RADAR,2300 Alliance Blvd,Fort Worth,TX,76177,817-491-6100,0000-2359,1,32.986794,-97.312874
AGC,Allegheny Tower,5,TOWER WITH RADAR,12 Allegheny County Airport,West Mifflin,PA,15122,412-461-4388,0000-2359,3,40.35061,-79.927025
AGS,Augusta Tower,6,COMBINED TRACON TOWER,1540 Hangar Rd,Augusta,GA,30906,706-798-5198,0645-2300,3,33.369617,-81.971674
ALB,Albany Tower,6,COMBINED TRACON TOWER,128 Sicker Rd,Latham,NY,12110,518-862-1600,0000-2359,4,42.751377,-73.80147
ALO,Waterloo Tower,5,COMBINED TRACON TOWER,2740 Livingston La,Waterloo,IA,50703,319-233-7230,0600-2000,2,42.550556,-92.39454
AMA,Amarillo Tower,6,COMBINED TRACON TOWER,2000 English Rd,Amarillo,TX,79108,806-335-4090,0600-0000,1,35.23306,-101.70626
ANC,Anchorage Tower,8,TOWER WITH RADAR,5200 W International Airport Rd,Anchorage,AK,99502,907-271-2700,0000-2359,9,61.17735,-149.97821
APA,Centennial Tower,8,TOWER WITH RADAR,7800 S Peoria St E Wing,Englewood,CO,80112,720-873-2770,0000-2359,2,39.575131,-104.84536
APC,Napa Tower,5,TOWER WITH RADAR,4000 Airport Rd,Napa,CA,94558,707-255-1533,0700-2000,4,38.20654,-122.27591
ARB,Ann Arbor Tower,5,TOWER WITH RADAR,875 Airport Blvd,Ann Arbor,MI,48108,734- 769-1830,0800-2000,3,42.22592,-83.74826
ARR,Aurora Tower,5,TOWER WITH RADAR,43 W 690 US 30,Sugar Grove,IL,60554,630-466-5610,0700-2100,2,41.768181,-88.467139
ASE,Aspen Tower,6,COMBINED TRACON TOWER,150 W Airport Rd,Aspen,CO,81611,970-925-3703,"ATCT 0700-2200, TRACON 0700-2000",2,39.22004,-106.864265
ATL,Atlanta Tower,12,TOWER WITH RADAR,1106 M H Jackson Service Rd,Atlanta,GA,30354,404-559-5800,0000-2359,2,33.640156,-84.396774
AUS,Austin Tower,9,COMBINED TRACON TOWER,10102 Aircraft Ln,Austin,TX,78719,512-369-7800,0000-2359,1,30.19608,-97.66543
AVL,Asheville Tower,6,COMBINED TRACON TOWER,61 Terminal Dr,Fletcher,NC,28732,828-684-0421,0630-2300,3,35.43443,-82.53724
AVP,Wilkes-Barre Tower,6,COMBINED TRACON TOWER,534 Lidy Rd,Dupont,PA,18641,570-655-7500,0000-2359,3,41.32794,-75.73436
AZO,Kalamazoo Tower,8,COMBINED TRACON TOWER,5400 Aviation Dr,Portgage,MI,49002,269-459-3350,0600-2300,2,42.238108,-85.547812
BDL,Bradley Tower,5,TOWER WITH RADAR,35 Perimeter Rd,Windsor Locks,CT,06096,860-386-3500,0000-2359,4,41.945976,-72.68602
BED,Hanscom Tower,6,TOWER WITH RADAR,LG Hanscom Field,Bedford,MA,01731,781-372-5500,0700-2300,4,42.465227,-71.288573
BFI,Boeing Tower,7,TOWER WITH RADAR,8200 E Marginal Way,Seattle,WA,98108,206-658-6400,0000-2359,5,47.529196,-122.304306
BFL,Bakersfield Tower,6,COMBINED TRACON TOWER,1547 Boughton Dr,Bakersfield,CA,93308,661-399-3531,0600-2300,3,35.434147,-119.04622
BGM,Binghamton Tower,5,COMBINED TRACON TOWER,2534 Airport Rd,Johnson City,NY,13790,607-729-6145,0600-0000,4,42.20997,-75.98741
BGR,Bangor Tower,5,COMBINED TRACON TOWER,617 Griffin Rd,Bangor,ME,04401,207-561-2500,0000-2359,5,44.81219,-68.82194
BHM,Birmingham Tower,8,COMBINED TRACON TOWER,5900 Messer Airport Hwy,Birmingham,AL,35212,205-769-3900,0000-2359,2,33.56016,-86.74917
BIL,Billings Tower,7,COMBINED TRACON TOWER,1907 Terminal Cir,Bilings,MT,59105,406-255-2750,0000-2359,3,45.8026,-108.53604
BIS,Bismarck Tower,5,COMBINED TRACON TOWER,2301 University Dr,Bismark,ND,58504,701-223-8790,0600-2359,2,46.76501,-100.76323
BJC,Rocky Mountain Metro Tower,7,TOWER WITH RADAR,11001 Control Tower Dr,Westminster,CO,80021,720-633-8600,0600-2200,2,39.906405,-105.12091
BNA,Nashville Tower,9,COMBINED TRACON TOWER,515 Olen Taylor Dr,Nashville,TN,37217,615-695-4500,0000-2359,2,36.11736,-86.67462
BOI,Boise Tower,8,COMBINED TRACON TOWER,3001 W Harvard St,Boise,ID,83705,208-364-5801,0000-2359,4,43.557022,-116.21996
BOS,Boston Tower,10,TOWER WITH RADAR,600 Control Tower,East Boston,MA,02128,617-455-3100,0000-2359,4,42.365749,-71.018709
BPT,Beaumont Tower,4,TOWER WITH RADAR,5040 W Airline Dr,Beaumont,TX,77705,409-720-5100,0600-2200,1,29.955837,-94.020669
BTR,Baton Rouge Tower,6,COMBINED TRACON TOWER,8326 Merle Gustafson Dr,Baton Rouge,LA,70807,225-354-2100,0500-0000,2,30.523174,-91.14952
BTV,Burlington Tower,7,COMBINED TRACON TOWER,1250 Airport Dr,South Burlington,VT,05403,802-657-4400,0530-0000,4,44.473225,-73.15886
BUF,Buffalo Tower,7,COMBINED TRACON TOWER,165 Holtz Dr,Cheektowaga,NY,14225,716-633-0660,0000-2359,3,42.940495,-78.7176
BUR,Burbank Tower,7,TOWER WITH RADAR,2821 N Hollywood Way,Burbank,CA,91505,818-567-4806,0000-2359,3,34.199932,-118.34882
BWI,Baltimore Tower,8,TOWER WITH RADAR,7062 Elm Rd,Baltimore,MD,21240,410-859-7255,0000-2359,3,39.17918,-76.66837
C90,Chicago TRACON,12,TRACON,1100 Bowes Rd,Elgin,IL,60123,847-608-5509,0000-2359,2,42.010273,-88.302536
CAE,Columbia Tower,6,COMBINED TRACON TOWER,2821 Aviation Way,West Columbia,SC,29170,803-822-4500,0000-2359,3,33.9449,-81.11782
CAK,Akron-Canton Tower,4,COMBINED TRACON TOWER,5400 Lauby Rd NW,North Canton,OH,44720,330-492-3801,"ATCT 0000-2359, TRACON 0600-0000",3,40.92375,-81.432655
CCR,Concord Tower,5,TOWER WITH RADAR,201 John Glenn Dr,Concord,CA,94520,925-685-5743,0700-2200,4,37.982174,-122.05614
CDW,Caldwell Tower,5,TOWER WITH RADAR,31 Wright Way Ste #1,Fairfield,NJ,07004,973-575-6448,0700-2300,4,40.876043,-74.277813
CHA,Chatanooga Tower,7,COMBINED TRACON TOWER,5921 Pinehurst St,Chattanooga,TN,37421,423-855-6475,0600-2350,2,35.029255,-85.20109
CHS,Charleston Tower,8,COMBINED TRACON TOWER,5775 S Aviation Ave,Charleston,SC,29406,843-414-2800,0000-2359,3,32.899498,-80.0301
CID,Cedar Rapids Tower,5,COMBINED TRACON TOWER,9455 Shepard Ct SW,Cedar Rapids,IA,52404,319-364-2344,0500-2330,2,41.888192,-91.705997
CKB,Clarksburg Tower,5,COMBINED TRACON TOWER,2500 Aviation Way,Bridgeport,WV,26330,304-842-4465,"0600-2300 MON - FRI, 0700-2300 SAT - SUN",3,39.30003,-80.22915
CLE,Cleveland Tower,8,COMBINED TRACON TOWER,5300 Riverside Dr,Cleveland,OH,44135,216-898-2020,0000-2359,3,41.402002,-81.848066
CLT,Charlotte Tower,12,COMBINED TRACON TOWER,5507 Josh BirMham Pkwy,Charlotte,NC,28208,704-359-1000,0000-2359,3,35.223496,-80.944273
CMA,Camarillo Tower,6,TOWER WITH RADAR,797 Aviation Dr,Camarillo,CA,93010,805-388-9730,0700-2100,3,34.20954,-119.084915
CMH,Columbus Tower,8,COMBINED TRACON TOWER,4277 International Gtwy,Columbus,OH,43219,614-338-4030,0000-2359,2,39.998375,-82.892624
CMI,Champaign Tower,5,COMBINED TRACON TOWER,1 Airport Rd,Savoy,IL,61874,217-355-4060,0600-2300,2,40.03943,-88.25399
CNO,Chino Tower,7,TOWER WITH RADAR,7000 Merrill Ave,Chino,CA,91710,909-597-1703,0700-2100,3,33.983753,-117.65177
COS,Colorado Springs Tower,8,COMBINED TRACON TOWER,460 Kincheloe Loop,Peterson AFB,CO,80914,719-380-6700,0000-2359,2,38.816542,-104.699121
CPR,Casper Tower,5,COMBINED TRACON TOWER,7710 Fuller St,Casper,WY,82604,307-472-8940,0500-2100,2,42.902534,-106.45689
CPS,Downtown Tower,5,TOWER WITH RADAR,9951 Molla Dr,Cahokia,IL,62206,618-337-2589,0630-2200,1,38.570107,-90.16692
CRP,Corpus Christi Tower,9,COMBINED TRACON TOWER,6902 McGloin Rd,Corpus Christi,TX,78415,361-299-4200,0000-2359,2,27.760798,-97.503006
CRQ,Palomar Tower,6,TOWER WITH RADAR,2200 Palomar Airport Rd,Carlsbad,CA,92010,760-438-4969,0700-2200,3,33.125824,-117.27478
CRW,Charleston Tower,5,COMBINED TRACON TOWER,100 Airport Rd,Charleston,WV,25311,304-347-5285,0000-2359,3,38.368767,-81.59689
CSG,Columbus Tower,4,TOWER WITH RADAR,3250 W Britt David Rd,Columbus,GA,31909,706-323-4363,0900-2100,2,32.528637,-84.95622
CVG,Cincinnati Tower,9,COMBINED TRACON TOWER,56 New Price Pike,Erlanger,KY,41018,859-372-6400,0000-2359,2,39.016514,-84.60554
D01,Denver TRACON,12,TRACON,26705 E 68th Ave,Denver,CO,80249,303-342-1500,0000-2359,2,39.824596,-104.67624
D10,Dallas - Ft Worth TRACON,12,TRACON,2401 International Pkwy,DFW Airport,TX,75261,972-615-2500,0000-2359,1,32.896458,-97.04025
D21,Detroit TRACON,11,TRACON,Detroit Metro Airport,Detriot,MI,48242,734-955-5000,0000-2359,3,42.212633,-83.353975
DAB,Daytona Beach Tower,10,COMBINED TRACON TOWER,2302 Bellevue Ave,Daytona Beach,FL,32114,386-226-3900,0000-2359,3,29.174086,-81.058205
DAL,Dallas Love Tower,8,TOWER WITH RADAR,8100 Aviation Pl,Dallas,TX,75235,214-353-1500,0000-2359,1,32.839867,-96.84308
DAY,Dayton Tower,4,TOWER WITH RADAR,3753 Cargo Rd,Vandalia,OH,45377,937-415-6800,0000-2359,2,39.89915,-84.224915
DCA,Washington National Tower,9,TOWER WITH RADAR,1 Aviation Circle,Washington,DC,20001,703-413-1530,0000-2359,3,38.854579,-77.04376
DEN,Denver Tower,12,TOWER WITH RADAR,8400 Pena Blvd Unit 492056,Denver,CO,80249,303-342-1600,0000-2359,2,39.84961,-104.67268
DFW,DFW Tower,12,TOWER WITH RADAR,2401 International Pkwy,DFW Airport,TX,75261,972-615-2600,0000-2359,1,32.896866,-97.040389
DLH,Duluth Tower,5,COMBINED TRACON TOWER,4525 Airport Approach Rd,Duluth,MN,55811,218-722-7326,0000-2359,2,46.833878,-92.19311
DPA,Dupage Tower,6,TOWER WITH RADAR,2710 International Dr,West Chicago,IL,60185,630-587-7800,0000-2359,2,41.907055,-88.255554
DSM,Des Moines Tower,7,COMBINED TRACON TOWER,3000 McKinley Ave,Des Moines,IA,50321,515-974-8010,0000-2359,2,41.54093,-93.65924
DTW,Detroit Tower,9,TOWER WITH RADAR,Detroit Metro Airport Bldg 801,Detroit,MI,48242,734-955-5000,0000-2359,3,42.21278,-83.354458
DVT,Deer Valley Tower,9,TOWER WITH RADAR,705 W Airport Blvd,Phoenix,AZ,85027,623-581-1492,0600-2359,3,33.69289,-112.08518
DWH,Hooks Tower,6,TOWER WITH RADAR,9125 Boudreaux Rd,Tomball,TX,77375,281-376-9721,0700-2200,1,30.067018,-95.555973
ELM,Elmira Tower,5,COMBINED TRACON TOWER,276 Sing Sing Rd,Horseheads,NY,14845,607-739-1971,0600-0000,3,42.162693,-76.89821
ELP,El Paso Tower,7,COMBINED TRACON TOWER,2050 Hawkins Blvd,El Paso,TX,79925,915-774-9400,0000-2359,2,31.798044,-106.37271
EMT,El Monte Tower,5,TOWER WITH RADAR,4500 Riverview Ave,El Monte,CA,91731,626-442-4390,0800-2000,3,34.088486,-118.0317
ERI,Erie Tower,4,COMBINED TRACON TOWER,4411 W 12th St,Erie,PA,16505,814-833-0841,0600-0000,3,42.084103,-80.18283
EUG,Eugene Tower,6,COMBINED TRACON TOWER,28833 Douglas Dr,Eugene,OR,97402,541-607-4600,0600-2330,5,44.117598,-123.212759
EVV,Evansville Tower,5,COMBINED TRACON TOWER,7405 Indianapolis Rd,Evansville,IN,47725,812-436-4660,0600-2300,2,38.044869,-87.529469
EWR,Newark Tower,11,TOWER WITH RADAR,118 Flagpole Rd,Newark,NJ,07114,973-565-5000,0000-2359,4,40.692529,-74.182941
F11,Central Florida TRACON,11,TRACON,9399 Jeff Fuqua Blvd S,Orlando,FL,32827,407-852-7570,0000-2359,3,28.431326,-81.30512
FAI,Fairbanks Tower,7,COMBINED TRACON TOWER,3800 University Ave S,Fairbanks,AK,99709,907-474-0050,0000-2359,9,64.81098,-147.84708
FAR,Fargo Tower,7,COMBINED TRACON TOWER,3101 Dakota Dr,Fargo,ND,58102,701-239-5188,"ATCT 0000-2359, TRACON 0600-2259",2,46.90662,-96.822556
FAT,Fresno Tower,7,COMBINED TRACON TOWER,5055 E Anderson Ave,Fresno,CA,93727,559-487-5405,0000-2359,4,36.77361,-119.72433
FAY,Fayetteville Tower,6,COMBINED TRACON TOWER,3041 Control Tower Rd,Fayetteville,NC,28306,910-484-6723,0000-2359,3,34.991886,-78.88525
FCM,Flying Cloud Tower,6,TOWER WITH RADAR,10110 Flying Cloud Dr,Eden Prairie,MN,55347,952-941-1188,"0700-2200 APR-OCT, 0700-2100 NOV-MAR",2,44.821742,-93.458352
FFZ,Falcon Tower,8,TOWER WITH RADAR,4822 E Falcon Dr,Mesa,AZ,85215,480-981-1376,0600-2100,2,33.45266,-111.72829
FLL,Fort Lauderdale Tower,8,TOWER WITH RADAR,4150 SW 12th Ter,Fort Lauderdale,FL,33315,954-921-9200,0000-2359,4,26.07277,-80.1575
FLO,Florence Tower,5,COMBINED TRACON TOWER,2085 Terminal Dr,Florence,SC,29506,843-665-0632,0630-2200,3,34.194355,-79.72702
FNT,Flint Tower,4,COMBINED TRACON TOWER,3900 W Maple Rd,Flint,MI,48507,810-342-7800,0545-2330,3,42.96177,-83.75108
FPR,St Lucie Tower,7,TOWER WITH RADAR,3300 Hammond Rd,Fort Pierce,FL,34946,772-465-0761,0700-2100,3,27.490812,-80.37401
FRG,Farmingdale Tower,7,TOWER WITH RADAR,7170 Republic Airport,Farmingdale,NY,11735,631-454-2332,0700-2300,4,40.72089,-73.41779
FSD,Sioux Falls Tower,6,COMBINED TRACON TOWER,2601 N Jaycee Ln,Sioux Falls,SD,57104,605-338-4841,0500-0000,2,43.5827,-96.73179
FSM,Fort Smith Tower,7,COMBINED TRACON TOWER,5100 S 66th St,Fort Smith,AR,72903,479-649-2400,0530-2300,1,35.333874,-94.36185
FTW,Meacham Tower,6,TOWER WITH RADAR,4100 N Lincoln Ave,Fort Worth,TX,76106,817-740-3300,0000-2359,1,32.813904,-97.36304
FWA,Fort Wayne Tower,5,COMBINED TRACON TOWER,3817 Winters Rd,Fort Wayne,IN,46809,260-479-6500,0000-2359,2,40.974575,-85.18714
FXE,Fort Lauderdale Exec. Tower,7,TOWER WITH RADAR,5550 NW 23rd Ave,Fort Lauderdale,FL,33309,954-776-1046,0000-2359,4,26.195402,-80.17355
GCN,Grand Canyon Tower,5,TOWER WITH RADAR,1393 Liberator Dr,Grand Canyon,AZ,86023,928-638-2850,"0700-1900 Oct-May , 0600-2000 Jun-Sep",2,35.95164,-112.142239
GEG,Spokane Tower,7,COMBINED TRACON TOWER,8314 W Electric Ave,Spokane,WA,99224,509-742-2500,0000-2359,4,47.612667,-117.528046
GFK,Grand Forks Tower,9,TOWER WITH RADAR,2780 Airport Dr RR #2,Grand Forks,ND,58203,701-792-4260,0600-2330,2,47.948858,-97.173887
GGG,Longview Tower,6,COMBINED TRACON TOWER,214 Tower Rd,Longview,TX,75603,903-643-4015,0600-2200,1,32.379895,-94.712605
GPT,Gulfport Tower,7,COMBINED TRACON TOWER,4445 10th Ave,Gulfport,MS,39501,228-265-6100,0600-2300,2,30.4012,-89.07375
GRB,Green Bay Tower,6,COMBINED TRACON TOWER,2077 Airport Dr,Green Bay,WI,54313,920-431-5751,0530-2330,3,44.496002,-88.11974
GRR,Grand Rapids Tower,5,COMBINED TRACON TOWER,5500 44th St SE,Grand Rapids,MI,49512,616-575-1902,0530-0000,2,42.88416,-85.52964
GSO,Greensboro Tower,7,COMBINED TRACON TOWER,1321 S Terminal Rd,Greensboro,NC,27409,336-358-3440,0000-2359,3,36.100918,-79.941145
GSP,Greer Tower,7,COMBINED TRACON TOWER,2000 GSP Dr,Greer,SC,29651,864-879-2155,0600-2345,3,34.878906,-82.22441
GTF,Great Falls Tower,5,COMBINED TRACON TOWER,2830 Airport Ave A,Great Falls,MT,59404,406-454-7500,0000-2359,4,47.480063,-111.359468
HCF,Honolulu Control Facility,11,COMBINED CONTROL FAC.,760 Worchester Ave,Honolulu,HI,96818,808-840-6100,0000-2359,X,21.319256,-157.94348
HEF,Manassas Tower,5,TOWER WITH RADAR,10603 Observation Rd,Manassas,VA,20110,703-361-5800,0630-2230,3,38.72197,-77.52028
HIO,Hillsboro Tower,6,TOWER WITH RADAR,3119 NE Cornell Rd,Hillsboro,OR,97124,503-615-5470,0600-2200,5,45.530663,-122.95592
HLN,Helena Tower,5,NON-RADAR APP/TOWER,3100 Airport Rd,Helena,MT,59601,406-449-5756,0600-2200,4,46.60215,-111.98297
HOU,Hobby Tower,8,TOWER WITH RADAR,8410 Lockheed Ave,Houston,TX,77061,713-847-1400,0000-2359,1,29.645914,-95.287735
HPN,Westchester Tower,7,TOWER WITH RADAR,91 Tower Rd,White Plains,NY,10604,914-948-6520,0600-2300,4,41.06053,-73.718796
HSV,Huntsville Tower,7,COMBINED TRACON TOWER,1000 E Boeing Cir,Huntsville,AL,35824,256-542-2060,"0600-0000 TUE-SAT, SUN 0600-TUE 0000",2,34.638943,-86.77219
HTS,Huntington Tower,5,COMBINED TRACON TOWER,1471 Airport Rd,Huntington,WV,25704,304-453-1201,0000-2359,2,38.37022,-82.55581
HUF,Terre Haute Tower,5,COMBINED TRACON TOWER,580 Airport St,Terre Haute,IN,47803,812-877-7730,0000-2359,2,39.460377,-87.30309
HWD,Hayward Tower,6,TOWER WITH RADAR,20305 Skywest Dr,Hayward,CA,94541,510-785-5248,0700-2100,4,37.66321,-122.11974
I90,Houston TRACON,12,TRACON,4005 Greens Rd,Houston,TX,77032,281-443-5840,0000-2359,1,29.954588,-95.321137
IAD,Dulles Tower,9,TOWER WITH RADAR,24525 Willard Rd,Dulles,VA,20166,571-323-6351,0000-2359,3,38.938973,-77.448653
IAH,Houston Intercontinental Tower,11,TOWER WITH RADAR,4215 Will Clayton Pkwy,Houston,TX,77032,281-209-8600,0000-2359,1,29.984102,-95.328384
ICT,Wichita Tower,8,COMBINED TRACON TOWER,2196 S Airport Rd,Wichita,KS,67209,316-350-1500,0000-2359,1,37.65559,-97.426186
ILG,Wilmington Tower,4,TOWER WITH RADAR,#1 DRBA Way,New Castle,DE,19720,302-324-0265,0630-2300,3,39.677704,-75.599394
ILM,Wilmington Tower,7,COMBINED TRACON TOWER,2220 Control Tower Dr,Wilmington,NC,28405,910-815-4530,0600-2300,3,34.26564,-77.8977
IND,Indianapolis Tower,9,COMBINED TRACON TOWER,8100 Col H Weir Cook Memorial Dr S,Indianapolis,IN,46241,317-227-5780,0000-2359,2,39.708816,-86.304495
ISP,Islip Tower,6,TOWER WITH RADAR,5 Airway Rd,Ronkonkoma,NY,11779,631-619-9040,0600-2359,4,40.789383,-73.101524
ITO,Hilo Tower,6,COMBINED TRACON TOWER,102 Ailolo St,Hilo,HI,96720,808-935-4658,0600-2200,X,19.71619,-155.047476
JAN,Jackson Tower,6,COMBINED TRACON TOWER,100 International Dr,Jackson,MS,39298,601-965-5793,0600-2300,2,32.310078,-90.075512
JAX,Jacksonville Tower,9,COMBINED TRACON TOWER,14400 Whirlwind Ave,Jacksonville,FL,32218,904-741-0700,0000-2359,3,30.49303,-81.68277
JCF,Joshua Control Facility,8,COMBINED CONTROL FAC.,100 E Sparks Dr,Edwards AFB,CA,93524,661-575-2100,0000-2359,3,34.919201,-117.902154
JFK,Kennedy Tower,11,TOWER WITH RADAR,JFK International Airport,Jamaica,NY,11430,718-656-0335,0000-2359,4,40.64267,-73.78132
JNU,Juneau Tower,5,TOWER WITH RADAR,1873 Shell Simmons Dr,Juneau,AK,99801,907-586-7411,0600-2300 APR-SEP; 0700-2000 OCT-MAR,8,58.36273,-134.58452
L30,Las Vegas TRACON,11,TRACON,699 Wright Brothers Ln,Las Vegas,NV,89119,702-262-5900,0000-2359,3,36.082711,-115.146932
LAF,Lafayette Tower,6,TOWER WITH RADAR,1560 Aviation Dr,West Lafayette,IN,47906,765-743-2611,0700-2100,2,40.414752,-86.933346
LAN,Lansing Tower,4,COMBINED TRACON TOWER,4100 Capital City Blvd,Lansing,MI,48906,517-321-1355,0000-2359,3,42.77323,-84.588875
LAS,Las Vegas Tower,11,TOWER WITH RADAR,699 Wright Brothers Ln,Las Vegas,NV,89119,702-262-5910,0000-2359,3,36.08277,-115.147243
LAX,Los Angeles Tower,12,TOWER WITH RADAR,245 World Way N,Los Angeles,CA,90045,310-342-4900,0000-2359,3,33.9449,-118.40668
LBB,Lubbock Tower,7,COMBINED TRACON TOWER,7001 N Martin Luther King Jr Blvd,Lubbock,TX,79403,806-766-6503,0000-2359,1,33.530704,-101.820145
LCH,Lake Charles Tower,5,COMBINED TRACON TOWER,500 Airport Blvd,Lake Charles,LA,70607,337-477-2016,0600-2200,2,30.128315,-93.21417
LEX,Lexington Tower,7,COMBINED TRACON TOWER,4051 Terminal Dr,Lexington,KY,40510,859-514-7901,0000-2359,2,38.039906,-84.5974
LFT,Lafayette Tower,5,COMBINED TRACON TOWER,220 Tower Dr,Lafayette,LA,70508,337-234-4935,0530-2230,2,30.20401,-91.99567
LGA,La Guardia Tower,11,TOWER WITH RADAR,LaGuardia Airport,Flushing,NY,11371,347-846-1710,0000-2359,4,40.773497,-73.873687
LGB,Long Beach Tower,8,TOWER WITH RADAR,3601 E Spring St,Long Beach,CA,90806,562-424-7128,0615-2345,3,33.8117,-118.150211
LIT,Little Rock Tower,7,COMBINED TRACON TOWER,2601 David Grundfest Dr,Little Rock,AR,72206,501-379-2900,0000-2359,1,34.724835,-92.223741
LNK,Lincoln Tower,5,TOWER WITH RADAR,2600 W Adams St,Lincoln,NE,68524,402-474-3011,0530-0000,1,40.842873,-96.74308
LOU,Bowman Tower,5,TOWER WITH RADAR,2710 Moran Ave,Louisville,KY,40205,502-479-3173,0700-2200,2,38.227192,-85.66027
LVK,Livermore Tower,6,TOWER WITH RADAR,590 Airway Blvd,Livermore,CA,94551,925-443-0666,0700-2100,4,37.69612,-121.81635
M03,Memphis TRACON,9,TRACON,2515 Winchester Rd,Memphis,TN,38116,901-842-8400,0000-2359,1,35.049915,-89.981572
M98,Minneapolis TRACON,10,TRACON,6311 34th Ave S,Minneapolis,MN,55450,612-713-4000,0000-2359,2,44.88914,-93.223045
MAF,Midland Tower,7,COMBINED TRACON TOWER,2500 N Pliska Dr,Midland,TX,79711,432-488-2000,0600-0000,1,31.940176,-102.2092
MBS,Saginaw Tower,4,COMBINED TRACON TOWER,8570 W Freeland Rd,Freeland,MI,48623,989-695-9143,0600-2300,3,43.52107,-84.08192
MCI,Kansas City Tower,8,COMBINED TRACON TOWER,#4 International Sq,Kansas City,MO,64153,816-329-2700,0000-2359,1,39.298327,-94.715745
MCO,Orlando Tower,9,TOWER WITH RADAR,9685 Jeff Fuqua Blvd N,Orlando,FL,32827,407-852-7500,0000-2359,3,28.427191,-81.307528
MDT,Harrisburg Tower,7,COMBINED TRACON TOWER,1 Terminal Dr,Middletown,PA,17057,717-948-9180,0000-2359,3,40.197424,-76.763474
MDW,Midway Tower,8,TOWER WITH RADAR,6200 S Laramie Ave,Chicago,IL,60638,773-884-3670,0000-2359,2,41.78027,-87.752417
MEM,Memphis Tower,8,TOWER WITH RADAR,2515 Winchester Rd,Memphis,TN,38116,901-842-8400,0000-2359,1,35.049616,-89.981666
MFD,Mansfield Tower,4,COMBINED TRACON TOWER,2101 Harrington Memorial Rd,Mansfield,OH,44903,419-522-7272,0600-2300,3,40.81279,-82.51301
MGM,Montgomery Tower,7,COMBINED TRACON TOWER,4701-B Tower Rd,Hope Hull,AL,36043,334-284-0384,0600-2300,2,32.29756,-86.41373
MHT,Manchester Tower,4,TOWER WITH RADAR,8 Ammon Dr,Manchester,NH,03103,603-621-1700,0000-2359,4,42.93298,-71.440186
MIA,Miami Tower,12,COMBINED TRACON TOWER,6400 NW 22nd St,Miami,FL,33122,305-869-5400,0000-2359,4,25.793616,-80.299723
MIC,Crystal Tower,4,TOWER WITH RADAR,5800 Crystal Airport Rd,Crystal,MN,55429,763-537-9161,"0700-2200 MAY-SEP, 0700-2100 OCT-APR",3,45.0585,-93.35586
MKC,Downtown Tower,5,TOWER WITH RADAR,653 NW Lou Holland Dr,Kansas City,MO,64116,816-329-2880,0000-2359,1,39.13534,-94.58896
MKE,Milwaukee Tower,8,COMBINED TRACON TOWER,5330 S Howell Ave,Milwaukee,WI,53207,414-489-2150,0000-2359,2,42.947833,-87.90643
MKG,Muskegon Tower,4,COMBINED TRACON TOWER,113 Sinclair Dr,Muskegon,MI,49441,231-798-1222,0600-2300,2,43.164413,-86.23773
MLI,Quad City Tower,5,COMBINED TRACON TOWER,6421 74th Ave,Milan,IL,61264,309-799-5195,0530-2230,2,41.441124,-90.508514
MLU,Monroe Tower,5,COMBINED TRACON TOWER,5403 Operations Rd,Monroe,LA,71203,318-327-5600,0600-2200,1,32.511753,-92.04391
MMU,Morristown Tower,5,TOWER WITH RADAR,4 Airport Rd,Morristown,NJ,07960,973-267-0331,0645-2230,4,40.796394,-74.42827
MOB,Mobile Tower,8,COMBINED TRACON TOWER,101 Flave Pierce Rd,Mobile,AL,36608,251-662-6200,0600-2300,2,30.688995,-88.25007
MRI,Merrill Tower,6,TOWER WITH RADAR,1950 E 5th Ave,Anchorage,AK,99501,907-271-2698,0700-0000 May-Aug 0700-2200 Sep-Apr,9,61.217243,-149.843879
MRY,Monterey Tower,5,TOWER WITH RADAR,2475 Henderson Way,Monterey,CA,93940,831-375-1211,0600-2100,4,36.587296,-121.85321
MSN,Madison Tower,7,COMBINED TRACON TOWER,4301 International La,Madison,WI,53704,608-244-5691,0600-2300,2,43.134155,-89.349205
MSP,Minneapolis Tower,11,TOWER WITH RADAR,6311 34th Ave S,Minneapolis,MN,55450,612-713-4000,0000-2359,2,44.88914,-93.223045
MSY,New Orleans Tower,9,COMBINED TRACON TOWER,1 Terminal Dr,Kenner,LA,70062,504-471-4300,0000-2359,2,29.984001,-90.259032
MWH,Grant County Tower,6,COMBINED TRACON TOWER,7820 Andrews St NE,Moses Lake,WA,98837,509-762-1367,0600-2200,5,47.18831,-119.32186
MYF,Montgomery Tower,9,TOWER WITH RADAR,4298 Ponderosa Ave,San Diego,CA,92123,858-277-5601,0600-2100,3,32.819027,-117.1325
MYR,Myrtle Beach Tower,9,COMBINED TRACON TOWER,3242 Tower St,Myrtle Beach,SC,29577,843-238-3008,0600-2300,3,33.684387,-78.94085
N90,New York TRACON,12,COMBINED TRACON,1515 Stewart Ave,Westbury,NY,11590,516-683-2900,0000-2359,4,40.73761,-73.57216
NCT,Northern California TRACON,12,TRACON,11375 Douglas Rd,Mather,CA,95655,916-366-4001,0000-2359,4,38.55959,-121.26446
NEW,Lakefront Tower,5,TOWER WITH RADAR,8500 Lloyd Stearman Dr,New Orleans,LA,70126,504-240-3335,0800-1800,2,30.042159,-90.025771
OAK,Oakland Tower,8,TOWER WITH RADAR,1 Airport Dr,Oakland,CA,94621,510-214-1700,0000-2359,4,37.71958,-122.22193
OGG,Maui Tower,7,TOWER WITH RADAR,62 Kuhea St,Kahului,HI,96732,808-877-0725,"0600-2300 DST, 0600-0000 STD",X,20.897265,-156.426289
OKC,Oklahoma City Tower,8,COMBINED TRACON TOWER,4500 SW 67th St,Oklahoma City,OK,73159,405-686-4700,0000-2359,0,35.39867,-97.599785
OMA,Eppley Tower,6,TOWER WITH RADAR,4501 Abbott Dr,Omaha,NE,68110,402-271-7500,0000-2359,1,41.293163,-95.90153
ONT,Ontario Tower,5,TOWER WITH RADAR,1250 Tower Dr,Ontario,CA,91761,909-605-0057,0000-2359,3,34.04982,-117.59856
ORD,Chicago O'Hare Tower,12,TOWER WITH RADAR,Chicago O'Hare International Airport,Chicago,IL,60666,773-601-7601,0000-2359,2,41.97607,-87.90328
ORF,Norfolk Tower,8,COMBINED TRACON TOWER,1245 Miller Store Rd,Virginia Beach,VA,23455,757-460-5142,0000-2359,4,36.891045,-76.194336
ORL,Orlando Executive Tower,6,TOWER WITH RADAR,4599 ORL Tower Rd,Orlando,FL,32807,407-648-6290,0700-2200,3,28.54383,-81.32874
P31,Pensacola TRACON,9,TRACON,4230 Airfield Rd,Pensacola,FL,32504,850-266-6900,0000-2359,2,30.4576,-87.18308
P50,Phoenix TRACON,11,TRACON,3500 E Sky Harbor Blvd,Phoenix,AZ,85034,602-306-2500,0000-2359,3,33.434982,-112.00734
P80,Portland TRACON,9,TRACON,7108 NE Airport Way,Portland,OR,97218,503-493-7500,0000-2359,5,45.587613,-122.588691
PAE,Paine Tower,6,TOWER WITH RADAR,3310 100th St SW,Everett,WA,98204,425-923-1400,0700-2100,5,47.909023,-122.279078
PAO,Palo Alto Tower,6,TOWER WITH RADAR,1909 Embarcadero Rd,Palo Alto,CA,94303,650-493-0641,0700-2100,4,37.453716,-122.11319
PBI,Palm Beach Tower,9,COMBINED TRACON TOWER,3550 Belvedere Road,West Palm Beach,FL,33406,561-683-1867,0000-2359,4,26.691494,-80.09388
PCT,Potomac TRACON,12,TRACON,3699 Macintosh Dr,Warrenton,VA,20187,540-349-7503,0000-2359,3,38.74924,-77.669464
PDK,DeKalb - Peachtree Tower,7,TOWER WITH RADAR,2001 Airport Rd,Chamblee,GA,30341,678-495-5230,0630-2300 MON-FRI 0700-2300 SAT-SUN,2,33.876522,-84.30529
PDX,Portland Tower,8,TOWER WITH RADAR,7108 NE Airport Way,Portland,OR,97218,503-493-7500,0000-2359,5,45.587687,-122.589092
PHF,Patrick Henry Tower,5,TOWER WITH RADAR,2402 G Ave,Newport News,VA,23602,757-875-5080,0600-2300,3,37.13032,-76.506165
PHL,Philadelphia Tower,11,COMBINED TRACON TOWER,15 Hog Island Rd,Philadelphia,PA,19153,215-492-4100,0000-2359,4,39.865305,-75.232982
PHX,Phoenix Tower,10,TOWER WITH RADAR,3500 E Sky Harbor Blvd,Phoenix,AZ,85034,602-306-2500,0000-2359,3,33.434982,-112.00734
PIA,Peoria Tower,5,COMBINED TRACON TOWER,6100 W Dirksen Pkwy,Peoria,IL,61607,309-697-0751,0000-2359,2,40.665936,-89.690154
PIE,St Petersburg Tower,7,TOWER WITH RADAR,14510 Airport Pkwy,Clearwater,FL,33762,727-539-6867,0600-2300,3,27.902931,-82.69153
PIT,Pittsburgh Tower,9,COMBINED TRACON TOWER,Tower Rd,Pittsburgh,PA,15231,412-269-9237,0000-2359,3,40.494671,-80.237776
PNE,Northeast Philadelphia Tower,5,TOWER WITH RADAR,3060 Red Lion Rd Gate #17,Philadelphia,PA,19114,215-673-7626,0600-2300,4,40.081752,-75.006117
PNS,Pensacola Tower,6,TOWER WITH RADAR,4230 Airfield Rd,Pensacola,FL,32504,850-266-6901,0530-2300,2,30.4576,-87.18308
POC,Brackett Tower,5,TOWER WITH RADAR,1600 Puddingstone Dr,La Verne,CA,91750,909-593-2539,0700-2100,3,34.095123,-117.78588
POU,Poughkeepsie Tower,4,TOWER WITH RADAR,265 New Hackensack Rd,Wappingers Falls,NY,12590,845-462-3434,"0700-2200 15 May-14 Sept, 0700-2100 15 Sept-14 May",4,41.623714,-73.884056
PRC,Prescott Tower,8,TOWER WITH RADAR,6500 Wilkinson Dr,Prescott,AZ,86301,928-445-2160,0600-2200,3,34.648964,-112.41949
PSC,Pasco Tower,6,COMBINED TRACON TOWER,3601 N 20th Ave,Pasco,WA,99301,509-542-4200,0600-2200,4,46.25754,-119.11704
PSP,Palm Springs Tower,5,TOWER WITH RADAR,280 N El Cielo Rd,Palm Springs,CA,92262,760-327-1546,0600-2300,3,33.82702,-116.51062
PTK,Pontiac Tower,6,TOWER WITH RADAR,6510 Highland Rd,Waterford,MI,48327,248-886-8500,0600-0000,3,42.659576,-83.41714
PUB,Pueblo Tower,8,TOWER WITH RADAR,31385 Bryan Cir,Pueblo,CO,81001,719-948-3374,0600-2200,2,38.28369,-104.49449
PVD,Providence Tower,7,COMBINED TRACON TOWER,464 Warwick Industrial Dr,Warwick,RI,02886,401-734-2800,0545-0000,4,41.709988,-71.43516
PWK,Chicago Executive Tower,5,TOWER WITH RADAR,1060 S Milwaukee Ave,Wheeling,IL,60090,847-229-6000,0600-2200 MON-FRI & 0700-2200 SAT-SUN,2,42.116309,-87.898293
PWM,Portland Tower,6,COMBINED TRACON TOWER,1003 Westbrook St,Portland,ME,04102,207-775-0602,0545-0000,4,43.650684,-70.30972
R90,Omaha TRACON,8,TRACON,100 TRACON Hill,Bellevue,NE,68005,402-682-4340,0000-2359,1,41.134727,-95.91039
RDG,Reading Tower,5,COMBINED TRACON TOWER,2405 B Bernville Rd,Reading,PA,19605,610-374-8039,0600-0000,3,40.37505,-75.97236
RDU,Raleigh-Durham Tower,9,COMBINED TRACON TOWER,1000 Sawyer Cir,Morrisville,NC,27560,919-380-3110,0000-2359,3,35.880986,-78.78579
RFD,Rockford Tower,6,COMBINED TRACON TOWER,5701 Falcon Rd,Rockford,IL,61109,815-484-5312,0000-2359,2,42.198315,-89.08526
RHV,Reid-Hillview Tower,7,TOWER WITH RADAR,2204 Waverly Ave,San Jose,CA,95122,408-272-5917,0700-2200,4,37.33102,-121.82139
RIC,Richmond Tower,6,TOWER WITH RADAR,5701 Gulfstream Rd,Richmond,VA,23250,804-226-6520,0000-2359,3,37.513443,-77.3319
RNO,Reno Tower,5,TOWER WITH RADAR,755 S Rock Blvd,Reno,NV,89502,775-324-8553,0000-2359,4,39.499424,-119.762892
ROA,Roanoke Tower,6,COMBINED TRACON TOWER,5354 Aviation Dr,Roanoke,VA,24102,540-265-2280,0000-2359,3,37.326434,-79.971551
ROC,Rochester Tower,6,COMBINED TRACON TOWER,1375 Scottsville Rd,Rochester,NY,14624,585-463-3800,0000-2359,3,43.11352,-77.66834
ROW,Roswell Tower,5,COMBINED TRACON TOWER,30 W Challenger,Roswell,NM,88202,505-347-2800,0600-2100,1,33.29904,-104.531588
RST,Rochester Tower,5,COMBINED TRACON TOWER,9 Helgerson Dr SW,Rochester,MN,55902,507-289-3198,0500-2300,2,43.916443,-92.48792
RSW,Fort Myers Tower,8,COMBINED TRACON TOWER,11900 Regional Ln SE,Ft Myers,FL,33913,239-768-5985,0600-0000,4,26.537367,-81.759076
RVS,Riverside Tower,7,TOWER WITH RADAR,8801 S Jack Bates Ave,Tulsa,OK,74132,918-299-6355,0700 - 2200,1,36.035725,-95.99078
S46,Seattle TRACON,10,TRACON,825 S 160th St,Burien,WA,98148,206-214-4600,0000-2359,5,47.459644,-122.32355
S56,Salt Lake City TRACON,10,TRACON,1201 N 4000 W St,Salt Lake City,UT,84116,801-325-9600,0000-2359,3,40.79635,-111.985153
SAN,San Diego Tower,8,TOWER WITH RADAR,3690 Pacific Hwy,San Diego,CA,92101,619-299-0677,0000-2359,3,32.738533,-117.18094
SAT,San Antonio Tower,9,COMBINED TRACON TOWER,9434 Airport Blvd,San Antonio,TX,78216,210-805-5507,0000-2359,1,29.527007,-98.475902
SAV,Savannah Tower,8,COMBINED TRACON TOWER,100 Melaver Dr,Savannah,GA,31408,912-964-3700,0600-0000,3,32.140945,-81.20922
SBA,Santa Barbara Tower,7,COMBINED TRACON TOWER,10 Burns Pl,Santa Barbara,CA,93117,805-681-0534,0600-2300,4,34.431484,-119.84516
SBN,South Bend Tower,7,COMBINED TRACON TOWER,4713 Lathrop St,South Bend,IN,46628,574-251-2600,"0530-0000 SUN-FRI, 0530-2345 SAT",2,41.708004,-86.312325
SCK,Stockton Tower,5,TOWER WITH RADAR,7434 S Lindbergh St,Stockton,CA,95206,209-982-4744,0700-2100,4,37.891167,-121.24249
SCT,Southern California TRACON,12,COMBINED TRACON,9175 Kearny Villa Rd,San Diego,CA,92126,858-537-5800,0000-2359,3,32.891037,-117.11808
SDF,Standiford Tower,8,COMBINED TRACON TOWER,755 Old Grade Ln,Louisville,KY,40213,502-375-7415,0000-2359,2,38.159832,-85.73058
SDL,Scottsdale Tower,7,TOWER WITH RADAR,14960 N 78th Way,Scottsdale,AZ,85260,480-609-7585,0600-2100,2,33.621223,-111.908485
SEA,Seattle Tower,10,TOWER WITH RADAR,2440 S 166th St,Seattle,WA,98158,206-214-2500,0000-2359,5,47.455824,-122.301363
SEE,Gillespie Tower,7,TOWER WITH RADAR,2001 N Marshall Ave,El Cajon,CA,92020,619-448-1449,0700-2100,3,32.82051,-116.97581
SFB,Sanford Tower,9,TOWER WITH RADAR,747 Control Tower Ln,Sanford,FL,32773,407-330-9816,0630-2300,3,28.7757,-81.238585
SFO,San Francisco Tower,10,TOWER WITH RADAR,Terminal 2 Room 630,San Francisco,CA,94128,650-876-2883,0000-2359,4,37.616031,-122.383962
SGF,Springfield Tower,7,COMBINED TRACON TOWER,2365 N FAA Ave,Springfield,MO,65802,417-868-5600,0000-2359,1,37.237095,-93.393654
SHV,Shreveport Tower,6,COMBINED TRACON TOWER,3694 Range Rd,Barksdale AFB,LA,71110,318-747-8500,0000-2359,1,32.45352,-93.83042
SJC,San Jose Tower,7,TOWER WITH RADAR,275 Martin Ave,Santa Clara,CA,95050,408-982-0750,0600-0000,4,37.360268,-121.93491
SJU,San Juan Tower,7,TOWER WITH RADAR,Luis Munoz Marin Int'l Airport,San Juan,PR,00917,787-253-4605,0000-2359,X,18.43893,-66.00398
SLC,Salt Lake City Tower,10,TOWER WITH RADAR,1201 North 4000 West,Salt Lake City,UT,84116,801-325-9600,0000-2359,3,40.796358,-111.985137
SMF,Sacramento Tower,6,TOWER WITH RADAR,5620 Alan Boyd Dr,Sacramento,CA,95837,916-929-5151,0000-2359,4,38.690243,-121.5941
SMO,Santa Monica Tower,5,TOWER WITH RADAR,3300 Donald Douglas Loop N,Santa Monica,CA,90405,310-398-1525,0700-2100,3,34.018806,-118.45094
SNA,John Wayne Tower,8,TOWER WITH RADAR,370 Paularino Ave,Costa Mesa,CA,92626,714-668-0141,0615-2300,3,33.678818,-117.87248
SPI,Springfield Tower,5,COMBINED TRACON TOWER,#1 Tower Dr,Springfield,IL,62707,217-535-1400,0600-2200,2,39.844356,-89.685752
SRQ,Sarasota Tower,7,TOWER WITH RADAR,1120 Clyde Jones Rd,Sarasota,FL,34243,941-355-3105,0600-0000,3,27.403505,-82.55869
STL,St Louis Tower,8,TOWER WITH RADAR,10789 Lambert International Blvd,Bridgeton,MO,63044,314-890-4703,0000-2359,1,38.74481,-90.3733
STP,St Paul Tower,4,TOWER WITH RADAR,514 Tower Rd,St Paul,MN,55107,651-312-8840,"0600-2200 MON-FRI, 0700-2200 SAT-SUN",2,44.933406,-93.064353
STS,Sonoma Tower,5,TOWER WITH RADAR,2245 Airport Blvd,Santa Rosa,CA,95403,707-546-4294,0700-2000,4,38.511005,-122.80364
STT,St Thomas Tower,4,TOWER WITH RADAR,1 John Brewers Bay,Charlotte Amalie,VI,00802,340-714-0793,"0700-2230, 0700-2130 DST",X,18.339138,-64.974791
SUS,Spirit Tower,5,TOWER WITH RADAR,553 Beechcraft Ave,Chesterfield,MO,63005,314-890-7282,0600-2300,1,38.66269,-90.65154
SUX,Sioux Gateway Tower,5,COMBINED TRACON TOWER,6001 Mitchell St,Sioux City,IA,51111,712-277-3579,0600-2130,2,42.402115,-96.37622
SYR,Syracuse Tower,6,COMBINED TRACON TOWER,200 Constellation Way N,North Syracuse,NY,13212,315-426-4727,0000-2359,4,43.114902,-76.11691
T75,St Louis TRACON,9,TRACON,22 Research Park Ct,St Charles,MO,63304,314-890-1003,0000-2359,1,38.706192,-90.679474
TEB,Teterboro Tower,9,TOWER WITH RADAR,225 Fred Wehran Dr,Teterboro,NJ,07608,201-288-1889,0000-2359,4,40.851818,-74.055214
TLH,Tallahassee Tower,7,COMBINED TRACON TOWER,5700 Springhill Rd,Tallahassee,FL,32305,850-942-9642,0600-2300,3,30.376928,-84.35469
TMB,Tamiami Tower,7,TOWER WITH RADAR,14744 SW 128th St,Miami,FL,33196,305-256-7628,0700-2300,4,25.648552,-80.43234
TOA,Torrance Tower,6,TOWER WITH RADAR,25311 Aero Way,Torrance,CA,90505,310-539-1278,0700-2000,3,33.800663,-118.341805
TOL,Toledo Tower,6,COMBINED TRACON TOWER,11013 Airport Hwy,Swanton,OH,43558,419-865-5075,0000-2359,2,41.59631,-83.80455
TPA,Tampa Tower,10,COMBINED TRACON TOWER,4180 George J Bean Pkwy Suite 100,Tampa,FL,33607,813-371-7700,0000-2359,3,27.981209,-82.533878
TRI,Tri-Cities Tower,6,COMBINED TRACON TOWER,2701 Hwy 75,Blountville,TN,37617,423-325-6271,0600-0000,3,36.476192,-82.412865
TUL,Tulsa Tower,8,COMBINED TRACON TOWER,3232 N Memorial Dr,Tulsa,OK,74115,918-831-6700,0000-2359,1,36.203568,-95.88698
TUS,Tucson Tower,6,TOWER WITH RADAR,1865 E Aero Park Blvd,Tucson,AZ,85756,520-670-5810,0000-2359,2,33.692918,-112.083384
TVC,Traverse City Tower,5,TOWER WITH RADAR,1220 Airport Access Rd,Traverse City,MI,49686,231-947-0453,0700-2200,3,44.74497,-85.58443
TWF,Twin Falls Tower,5,NON-RADAR APP/TOWER,350 Airport Loop,Twin Falls,ID,83301,208-734-7160,0600-2100,3,42.48363,-114.48479
TYS,Knoxville Tower,7,COMBINED TRACON TOWER,2207 Airbase Rd,Louisville,TN,37777,865-970-3025,0000-2359,2,35.817825,-84.002144
U90,Tucson TRACON,8,TRACON,4445 Phoenix St,Tucson,AZ,85708,520-670-5087,0000-2359,2,32.17037,-110.876194
VGT,North Las Vegas Tower,7,TOWER WITH RADAR,3700 Thunderbird Field Rd,North Las Vegas,NV,89032,702-648-6588,"0600-2000 OCT-MAR, 0600-2100 APR-SEP",3,36.210178,-115.189266
VNY,Van Nuys Tower,8,TOWER WITH RADAR,7550 Hayvenhurst Pl,Van Nuys,CA,91406,818-904-6166,0600-2245,3,34.206043,-118.49242
VRB,Vero Beach Tower,7,TOWER WITH RADAR,2930 Flight Safety Dr,Vero Beach,FL,32960,772-299-0129,0700-2100,3,27.64965,-80.42106
Y90,Yankee TRACON,8,TRACON,35 Perimeter Rd,Windsor Locks,CT,06096,860-386-3500,0000-2359,4,41.945976,-72.68602
YIP,Willow Run Tower,4,TOWER WITH RADAR,8800 Beck Rd,Belleville,MI,48111,734-480-9247,0000-2359,3,42.23962,-83.50414
YNG,Youngstown Tower,5,COMBINED TRACON TOWER,1453 Youngstown Kingsville Rd NE,Vienna,OH,44473,330-856-4806,ATCT 0000-2359 TRACON 0600-2359,3,41.263508,-80.672987
ZAB,Albuquerque Center,10,ARTCC,8000 Louisiana Blvd NE,Albuquerque,NM,87109,505-856-4500,0000-2359,2,35.170483,-106.56876
ZAN,Anchorage Center,10,ARTCC,700 N Boniface Pkwy,Anchorage,AK,99506,253-351-3500,0000-2359,9,61.229836,-149.77838
ZAU,Chicago Center,12,ARTCC,619 W New Indian Trail,Aurora,IL,60506,630-906-8220,0000-2359,2,41.782682,-88.33107
ZBW,Boston Center,11,ARTCC,35 Northeastern Blvd,Nashua,NH,03062,603-879-6633,0000-2359,4,42.735436,-71.480787
ZDC,Washington Center,12,ARTCC,825 E Market St,Leesburg,VA,20176,703-771-3401,0000-2359,3,39.101679,-77.543087
ZDV,Denver Center,10,ARTCC,2211 17th Ave,Longmont,CO,80501,303-651-4100,0000-2359,2,40.18857,-105.12782
ZFW,Fort Worth Center,12,ARTCC,13800 FAA Rd,Fort Worth,TX,76155,817-858-7500,0000-2359,1,32.83053,-97.066
ZHU,Houston Center,11,ARTCC,16600 John F Kennedy Blvd,Houston,TX,77032,713-230-5500,0000-2359,1,29.985823,-95.34155
ZID,Indianapolis Center,12,ARTCC,1850 S Sigsbee St,Indianapolis,IN,46241,317-247-2234,0000-2359,2,39.739628,-86.27734
ZJX,Jacksonville Center,11,ARTCC,37075 Aviation Ln,Hilliard,FL,32046,904 549-1537,0000-2359,3,30.69781,-81.90882
ZKC,Kansas City Center,11,ARTCC,250 S Rogers Rd,Olathe,KS,66062,913-254-8400,0000-2359,1,38.88021,-94.79049
ZLA,Los Angeles Center,12,ARTCC,2555 E Ave P,Palmdale,CA,93550,510-745-3000,0000-2359,3,34.602325,-118.08406
ZLC,Salt Lake City Center,10,ARTCC,2150 W 700 N,Salt Lake City,UT,84116,303-651-4109,0000-2359,3,40.78477,-111.95175
ZMA,Miami Center,11,ARTCC,7500 NW 58th St,Miami,FL,33166,305-716-1500,0000-2359,4,25.8248,-80.319347
ZME,Mephis Center,12,ARTCC,3229 Democrat Rd,Memphis,TN,38118,901-368-8160,0000-2359,1,35.068867,-89.958626
ZMP,Minneapolis Center,11,ARTCC,512 Division St,Farmington,MN,55024,651-463-5510,0000-2359,2,44.637783,-93.15073
ZNY,New York Center,12,ARTCC,4205 Johnson Ave,Ronkonkoma,NY,11779,631-468-1001,0000-2359,4,40.80769,-73.120895
ZOA,Oakland Center,11,ARTCC,5125 Central Ave,Fremont,CA,94536,808-935-4658,0000-2359,4,37.54488,-122.013336
ZOB,Cleveland Center,12,ARTCC,326 E Lorain St,Oberlin,OH,44074,440-774-0300,0000-2359,3,41.29409,-82.20859
ZSE,Seattle Center,10,ARTCC,3101 Auburn Way S,Auburn,WA,98902,801-320-2500,0000-2359,5,47.28823,-122.189026
ZSU,San Juan CERAP,9,ARTCC,5000 Carretera 190,Carolina,PR,00979,828-684-0421,0000-2359,X,18.431211,-65.993203
ZTL,Atlanta Center,12,ARTCC,299 Woolsey Rd,Hampton,GA,30228,770-210-7601,0000-2359,2,33.379446,-84.296862
ZUA,Guam CERAP,8,ARTCC,1775 Admiral Sherman Blvd,Barrigada,GU,96913,671-473-1200,0000-2359,X,13.478867,144.797156
